start=new Date('2022-09-29T00:00:00.000Z').valueOf();
sats=[{"MEAN_MOTION_DDOT":"0.0000000000000","ECCENTRICITY":"0.00013200","MEAN_ANOMALY":"275.8601","MEAN_MOTION_DOT":"0.00001927","RA_OF_ASC_NODE":"168.2157","FILE":"3586258","EPOCH":"2022-09-28T20:43:59.229408","NORAD_CAT_ID":"47144","GP_ID":"213764989","PERIAPSIS":"546.324","RCS_SIZE":"LARGE","OBJECT_TYPE":"PAYLOAD","DECAY_DATE":null,"OBJECT_ID":"2020-088Y","INCLINATION":"53.0543","ARG_OF_PERICENTER":"84.2539","SITE":"AFETR","APOAPSIS":"548.152","EPHEMERIS_TYPE":"0","MEAN_ELEMENT_THEORY":"SGP4","OBJECT_NAME":"STARLINK-1857","ELEMENT_SET_NO":"999","COUNTRY_CODE":"US","REV_AT_EPOCH":"10253","SEMIMAJOR_AXIS":"6925.373","CENTER_NAME":"EARTH","MEAN_MOTION":"15.06391931","CLASSIFICATION_TYPE":"U","TLE_LINE1":"1 47144U 20088Y   22271.86387997  .00001927  00000-0  14825-3 0  9991","TLE_LINE2":"2 47144  53.0543 168.2157 0001320  84.2539 275.8601 15.06391931102537","PERIOD":"95.593","BSTAR":"0.00014825000000","TIME_SYSTEM":"UTC","LAUNCH_DATE":"2020-11-25","REF_FRAME":"TEME"},{"EPHEMERIS_TYPE":"0","APOAPSIS":"548.097","MEAN_ELEMENT_THEORY":"SGP4","ELEMENT_SET_NO":"999","OBJECT_NAME":"STARLINK-1860","COUNTRY_CODE":"US","REV_AT_EPOCH":"10240","MEAN_MOTION":"15.06401829","CLASSIFICATION_TYPE":"U","SEMIMAJOR_AXIS":"6925.343","CENTER_NAME":"EARTH","PERIOD":"95.592","TLE_LINE2":"2 47147  53.0530 191.3860 0001284  81.6540 278.4594 15.06401829102400","TLE_LINE1":"1 47147U 20088AB  22271.15801822  .00003182  00000-0  23238-3 0  9997","REF_FRAME":"TEME","LAUNCH_DATE":"2020-11-25","TIME_SYSTEM":"UTC","BSTAR":"0.00023238000000","MEAN_MOTION_DDOT":"0.0000000000000","ECCENTRICITY":"0.00012840","RA_OF_ASC_NODE":"191.3860","FILE":"3585425","MEAN_MOTION_DOT":"0.00003182","MEAN_ANOMALY":"278.4594","PERIAPSIS":"546.319","RCS_SIZE":"LARGE","GP_ID":"213672811","NORAD_CAT_ID":"47147","EPOCH":"2022-09-28T03:47:32.774208","OBJECT_TYPE":"PAYLOAD","OBJECT_ID":"2020-088AB","DECAY_DATE":null,"SITE":"AFETR","ARG_OF_PERICENTER":"81.6540","INCLINATION":"53.0530"},{"CENTER_NAME":"EARTH","SEMIMAJOR_AXIS":"6925.345","CLASSIFICATION_TYPE":"U","MEAN_MOTION":"15.06401105","REV_AT_EPOCH":"10253","LAUNCH_DATE":"2020-11-25","REF_FRAME":"TEME","BSTAR":"0.00022436000000","TIME_SYSTEM":"UTC","TLE_LINE1":"1 47148U 20088AC  22271.13313663  .00003062  00000-0  22436-3 0  9993","TLE_LINE2":"2 47148  53.0526 181.5110 0001385  84.5171 275.5976 15.06401105102532","PERIOD":"95.592","MEAN_ELEMENT_THEORY":"SGP4","EPHEMERIS_TYPE":"0","APOAPSIS":"548.169","COUNTRY_CODE":"US","OBJECT_NAME":"STARLINK-1861","ELEMENT_SET_NO":"999","OBJECT_TYPE":"PAYLOAD","SITE":"AFETR","INCLINATION":"53.0526","ARG_OF_PERICENTER":"84.5171","OBJECT_ID":"2020-088AC","DECAY_DATE":null,"FILE":"3585456","RA_OF_ASC_NODE":"181.5110","MEAN_ANOMALY":"275.5976","MEAN_MOTION_DOT":"0.00003062","MEAN_MOTION_DDOT":"0.0000000000000","ECCENTRICITY":"0.00013850","GP_ID":"213673604","RCS_SIZE":"LARGE","PERIAPSIS":"546.251","EPOCH":"2022-09-28T03:11:43.004832","NORAD_CAT_ID":"47148"},{"DECAY_DATE":null,"OBJECT_ID":"2020-088AD","INCLINATION":"53.0535","ARG_OF_PERICENTER":"107.4230","SITE":"AFETR","OBJECT_TYPE":"PAYLOAD","EPOCH":"2022-09-28T07:03:56.133216","NORAD_CAT_ID":"47149","GP_ID":"213709382","RCS_SIZE":"LARGE","PERIAPSIS":"546.443","MEAN_MOTION_DDOT":"0.0000000000000","ECCENTRICITY":"0.00011400","MEAN_ANOMALY":"252.6884","MEAN_MOTION_DOT":"0.00001022","RA_OF_ASC_NODE":"190.7740","FILE":"3586039","TLE_LINE1":"1 47149U 20088AD  22271.29439969  .00001022  00000-0  87513-4 0  9991","TLE_LINE2":"2 47149  53.0535 190.7740 0001140 107.4230 252.6884 15.06393752102907","PERIOD":"95.593","BSTAR":"0.00008751300000","TIME_SYSTEM":"UTC","LAUNCH_DATE":"2020-11-25","REF_FRAME":"TEME","REV_AT_EPOCH":"10290","CENTER_NAME":"EARTH","SEMIMAJOR_AXIS":"6925.368","MEAN_MOTION":"15.06393752","CLASSIFICATION_TYPE":"U","OBJECT_NAME":"STARLINK-1862","ELEMENT_SET_NO":"999","COUNTRY_CODE":"US","APOAPSIS":"548.022","EPHEMERIS_TYPE":"0","MEAN_ELEMENT_THEORY":"SGP4"},{"OBJECT_TYPE":"PAYLOAD","SITE":"AFETR","INCLINATION":"53.0537","ARG_OF_PERICENTER":"84.1810","OBJECT_ID":"2020-088AE","DECAY_DATE":null,"RA_OF_ASC_NODE":"178.4140","FILE":"3586258","MEAN_ANOMALY":"275.9324","MEAN_MOTION_DOT":"0.00002953","ECCENTRICITY":"0.00012670","MEAN_MOTION_DDOT":"0.0000000000000","GP_ID":"213765490","RCS_SIZE":"LARGE","PERIAPSIS":"546.346","EPOCH":"2022-09-28T19:38:58.420608","NORAD_CAT_ID":"47150","SEMIMAJOR_AXIS":"6925.359","CENTER_NAME":"EARTH","CLASSIFICATION_TYPE":"U","MEAN_MOTION":"15.06396665","REV_AT_EPOCH":"10239","LAUNCH_DATE":"2020-11-25","REF_FRAME":"TEME","BSTAR":"0.00021709000000","TIME_SYSTEM":"UTC","TLE_LINE1":"1 47150U 20088AE  22271.81873172  .00002953  00000-0  21709-3 0  9997","TLE_LINE2":"2 47150  53.0537 178.4140 0001267  84.1810 275.9324 15.06396665102399","PERIOD":"95.592","MEAN_ELEMENT_THEORY":"SGP4","EPHEMERIS_TYPE":"0","APOAPSIS":"548.101","COUNTRY_CODE":"US","OBJECT_NAME":"STARLINK-1863","ELEMENT_SET_NO":"999"},{"RCS_SIZE":"LARGE","PERIAPSIS":"546.170","GP_ID":"213707882","NORAD_CAT_ID":"47151","EPOCH":"2022-09-28T11:39:56.869632","ECCENTRICITY":"0.00015550","MEAN_MOTION_DDOT":"0.0000000000000","RA_OF_ASC_NODE":"189.9168","FILE":"3586039","MEAN_MOTION_DOT":"0.00002304","MEAN_ANOMALY":"286.8127","OBJECT_ID":"2020-088AF","DECAY_DATE":null,"SITE":"AFETR","ARG_OF_PERICENTER":"73.3033","INCLINATION":"53.0545","OBJECT_TYPE":"PAYLOAD","ELEMENT_SET_NO":"999","OBJECT_NAME":"STARLINK-1864","COUNTRY_CODE":"US","EPHEMERIS_TYPE":"0","APOAPSIS":"548.324","MEAN_ELEMENT_THEORY":"SGP4","PERIOD":"95.593","TLE_LINE2":"2 47151  53.0545 189.9168 0001555  73.3033 286.8127 15.06388979102192","TLE_LINE1":"1 47151U 20088AF  22271.48607488  .00002304  00000-0  17354-3 0  9997","REF_FRAME":"TEME","LAUNCH_DATE":"2020-11-25","BSTAR":"0.00017354000000","TIME_SYSTEM":"UTC","REV_AT_EPOCH":"10219","MEAN_MOTION":"15.06388979","CLASSIFICATION_TYPE":"U","SEMIMAJOR_AXIS":"6925.382","CENTER_NAME":"EARTH"},{"OBJECT_ID":"2020-088AG","DECAY_DATE":null,"SITE":"AFETR","ARG_OF_PERICENTER":"90.7880","INCLINATION":"53.0529","OBJECT_TYPE":"PAYLOAD","PERIAPSIS":"546.346","RCS_SIZE":"LARGE","GP_ID":"213708630","NORAD_CAT_ID":"47152","EPOCH":"2022-09-28T11:17:20.747328","MEAN_MOTION_DDOT":"0.0000000000000","ECCENTRICITY":"0.00012270","FILE":"3586039","RA_OF_ASC_NODE":"189.9631","MEAN_MOTION_DOT":"0.00004588","MEAN_ANOMALY":"269.3249","PERIOD":"95.592","TLE_LINE2":"2 47152  53.0529 189.9631 0001227  90.7880 269.3249 15.06405888102199","TLE_LINE1":"1 47152U 20088AG  22271.47037902  .00004588  00000-0  32667-3 0  9995","REF_FRAME":"TEME","LAUNCH_DATE":"2020-11-25","BSTAR":"0.00032667000000","TIME_SYSTEM":"UTC","REV_AT_EPOCH":"10219","CLASSIFICATION_TYPE":"U","MEAN_MOTION":"15.06405888","SEMIMAJOR_AXIS":"6925.331","CENTER_NAME":"EARTH","ELEMENT_SET_NO":"999","OBJECT_NAME":"STARLINK-1866","COUNTRY_CODE":"US","EPHEMERIS_TYPE":"0","APOAPSIS":"548.045","MEAN_ELEMENT_THEORY":"SGP4"},{"MEAN_ELEMENT_THEORY":"SGP4","EPHEMERIS_TYPE":"0","APOAPSIS":"548.476","COUNTRY_CODE":"US","OBJECT_NAME":"STARLINK-1867","ELEMENT_SET_NO":"999","CENTER_NAME":"EARTH","SEMIMAJOR_AXIS":"6925.338","MEAN_MOTION":"15.06403548","CLASSIFICATION_TYPE":"U","REV_AT_EPOCH":"10217","LAUNCH_DATE":"2020-11-25","REF_FRAME":"TEME","TIME_SYSTEM":"UTC","BSTAR":"0.00023672000000","TLE_LINE1":"1 47153U 20088AH  22271.80078509  .00003246  00000-0  23672-3 0  9997","PERIOD":"95.592","TLE_LINE2":"2 47153  53.0543 193.7433 0001838  79.5673 280.5523 15.06403548102171","RA_OF_ASC_NODE":"193.7433","FILE":"3586258","MEAN_ANOMALY":"280.5523","MEAN_MOTION_DOT":"0.00003246","ECCENTRICITY":"0.00018380","MEAN_MOTION_DDOT":"0.0000000000000","GP_ID":"213765266","RCS_SIZE":"LARGE","PERIAPSIS":"545.930","EPOCH":"2022-09-28T19:13:07.831776","NORAD_CAT_ID":"47153","OBJECT_TYPE":"PAYLOAD","SITE":"AFETR","INCLINATION":"53.0543","ARG_OF_PERICENTER":"79.5673","OBJECT_ID":"2020-088AH","DECAY_DATE":null},{"MEAN_ELEMENT_THEORY":"SGP4","APOAPSIS":"548.495","EPHEMERIS_TYPE":"0","COUNTRY_CODE":"US","OBJECT_NAME":"STARLINK-1868","ELEMENT_SET_NO":"999","CENTER_NAME":"EARTH","SEMIMAJOR_AXIS":"6925.338","CLASSIFICATION_TYPE":"U","MEAN_MOTION":"15.06403591","REV_AT_EPOCH":"10229","BSTAR":"0.00015081000000","TIME_SYSTEM":"UTC","LAUNCH_DATE":"2020-11-25","REF_FRAME":"TEME","TLE_LINE1":"1 47154U 20088AJ  22271.17736035  .00001966  00000-0  15081-3 0  9995","PERIOD":"95.592","TLE_LINE2":"2 47154  53.0565 181.2855 0001866  78.3799 281.7400 15.06403591102291","MEAN_ANOMALY":"281.7400","MEAN_MOTION_DOT":"0.00001966","FILE":"3586039","RA_OF_ASC_NODE":"181.2855","MEAN_MOTION_DDOT":"0.0000000000000","ECCENTRICITY":"0.00018660","EPOCH":"2022-09-28T04:15:23.934240","NORAD_CAT_ID":"47154","GP_ID":"213709620","RCS_SIZE":"LARGE","PERIAPSIS":"545.910","OBJECT_TYPE":"PAYLOAD","INCLINATION":"53.0565","ARG_OF_PERICENTER":"78.3799","SITE":"AFETR","DECAY_DATE":null,"OBJECT_ID":"2020-088AJ"},{"DECAY_DATE":null,"OBJECT_ID":"2020-088AK","INCLINATION":"53.0548","ARG_OF_PERICENTER":"83.5888","SITE":"AFETR","OBJECT_TYPE":"PAYLOAD","EPOCH":"2022-09-28T01:54:44.982720","NORAD_CAT_ID":"47155","GP_ID":"213708382","RCS_SIZE":"LARGE","PERIAPSIS":"546.299","MEAN_MOTION_DDOT":"0.0000000000000","ECCENTRICITY":"0.00013340","MEAN_ANOMALY":"276.5252","MEAN_MOTION_DOT":"0.00001831","RA_OF_ASC_NODE":"201.7515","FILE":"3586039","TLE_LINE1":"1 47155U 20088AK  22271.07968730  .00001831  00000-0  14182-3 0  9996","TLE_LINE2":"2 47155  53.0548 201.7515 0001334  83.5888 276.5252 15.06397074101992","PERIOD":"95.592","BSTAR":"0.00014182000000","TIME_SYSTEM":"UTC","LAUNCH_DATE":"2020-11-25","REF_FRAME":"TEME","REV_AT_EPOCH":"10199","SEMIMAJOR_AXIS":"6925.358","CENTER_NAME":"EARTH","MEAN_MOTION":"15.06397074","CLASSIFICATION_TYPE":"U","OBJECT_NAME":"STARLINK-1869","ELEMENT_SET_NO":"999","COUNTRY_CODE":"US","APOAPSIS":"548.146","EPHEMERIS_TYPE":"0","MEAN_ELEMENT_THEORY":"SGP4"}];
